[{"OBJECT_NAME":"GLOBALSTAR M073","OBJECT_ID":"2010-054F","EPOCH":"2026-03-03T08:32:47.196384","MEAN_MOTION":12.6226968,"ECCENTRICITY":5.2e-5,"INCLINATION":52.008,"RA_OF_ASC_NODE":26.4418,"ARG_OF_PERICENTER":103.748,"MEAN_ANOMALY":60.9636,"EPHEMERIS_TYPE":0,"CLASSIFICATION_TYPE":"U","NORAD_CAT_ID":37193,"ELEMENT_SET_NO":999,"REV_AT_EPOCH":71056,"BSTAR":-1.9095e-5,"MEAN_MOTION_DOT":-1.07e-6,"MEAN_MOTION_DDOT":0},{"OBJECT_NAME":"GLOBALSTAR M083","OBJECT_ID":"2011-033A","EPOCH":"2026-03-03T05:03:14.042016","MEAN_MOTION":12.62267325,"ECCENTRICITY":7.53e-5,"INCLINATION":51.9882,"RA_OF_ASC_NODE":335.2614,"ARG_OF_PERICENTER":89.3263,"MEAN_ANOMALY":75.405,"EPHEMERIS_TYPE":0,"CLASSIFICATION_TYPE":"U","NORAD_CAT_ID":37739,"ELEMENT_SET_NO":999,"REV_AT_EPOCH":67956,"BSTAR":0.00013309,"MEAN_MOTION_DOT":-8.0e-7,"MEAN_MOTION_DDOT":0},{"OBJECT_NAME":"GLOBALSTAR M088","OBJECT_ID":"2011-033B","EPOCH":"2026-03-02T22:43:27.255072","MEAN_MOTION":12.62262093,"ECCENTRICITY":8.61e-5,"INCLINATION":52.0195,"RA_OF_ASC_NODE":242.2345,"ARG_OF_PERICENTER":92.8187,"MEAN_ANOMALY":71.7728,"EPHEMERIS_TYPE":0,"CLASSIFICATION_TYPE":"U","NORAD_CAT_ID":37740,"ELEMENT_SET_NO":999,"REV_AT_EPOCH":67507,"BSTAR":3.6157e-5,"MEAN_MOTION_DOT":-9.7e-7,"MEAN_MOTION_DDOT":0},{"OBJECT_NAME":"GLOBALSTAR M091","OBJECT_ID":"2011-033C","EPOCH":"2026-03-03T09:45:34.972128","MEAN_MOTION":12.62270184,"ECCENTRICITY":9.27e-5,"INCLINATION":51.9984,"RA_OF_ASC_NODE":203.9561,"ARG_OF_PERICENTER":96.8968,"MEAN_ANOMALY":298.231,"EPHEMERIS_TYPE":0,"CLASSIFICATION_TYPE":"U","NORAD_CAT_ID":37741,"ELEMENT_SET_NO":999,"REV_AT_EPOCH":67592,"BSTAR":-6.1706e-5,"MEAN_MOTION_DOT":-1.15e-6,"MEAN_MOTION_DDOT":0},{"OBJECT_NAME":"GLOBALSTAR M085","OBJECT_ID":"2011-033D","EPOCH":"2026-03-03T11:35:39.636096","MEAN_MOTION":12.62269373,"ECCENTRICITY":8.73e-5,"INCLINATION":52.012,"RA_OF_ASC_NODE":154.9231,"ARG_OF_PERICENTER":104.7813,"MEAN_ANOMALY":338.227,"EPHEMERIS_TYPE":0,"CLASSIFICATION_TYPE":"U","NORAD_CAT_ID":37742,"ELEMENT_SET_NO":999,"REV_AT_EPOCH":67644,"BSTAR":7.27e-5,"MEAN_MOTION_DOT":-9.1e-7,"MEAN_MOTION_DDOT":0},{"OBJECT_NAME":"GLOBALSTAR M081","OBJECT_ID":"2011-033E","EPOCH":"2026-03-03T10:17:39.950304","MEAN_MOTION":12.62262567,"ECCENTRICITY":8.04e-5,"INCLINATION":51.995,"RA_OF_ASC_NODE":157.6439,"ARG_OF_PERICENTER":120.197,"MEAN_ANOMALY":316.6777,"EPHEMERIS_TYPE":0,"CLASSIFICATION_TYPE":"U","NORAD_CAT_ID":37743,"ELEMENT_SET_NO":999,"REV_AT_EPOCH":67658,"BSTAR":2.4542e-5,"MEAN_MOTION_DOT":-9.9e-7,"MEAN_MOTION_DDOT":0},{"OBJECT_NAME":"GLOBALSTAR M089","OBJECT_ID":"2011-033F","EPOCH":"2026-03-03T11:24:37.772352","MEAN_MOTION":12.62264529,"ECCENTRICITY":3.81e-5,"INCLINATION":51.992,"RA_OF_ASC_NODE":111.6825,"ARG_OF_PERICENTER":155.7786,"MEAN_ANOMALY":312.5137,"EPHEMERIS_TYPE":0,"CLASSIFICATION_TYPE":"U","NORAD_CAT_ID":37744,"ELEMENT_SET_NO":999,"REV_AT_EPOCH":67743,"BSTAR":0.0001918,"MEAN_MOTION_DOT":-6.9e-7,"MEAN_MOTION_DDOT":0},{"OBJECT_NAME":"GLOBALSTAR M084","OBJECT_ID":"2011-080A","EPOCH":"2026-03-03T04:20:06.468288","MEAN_MOTION":12.62265205,"ECCENTRICITY":3.56e-5,"INCLINATION":52.0038,"RA_OF_ASC_NODE":340.0063,"ARG_OF_PERICENTER":81.7582,"MEAN_ANOMALY":66.0851,"EPHEMERIS_TYPE":0,"CLASSIFICATION_TYPE":"U","NORAD_CAT_ID":38040,"ELEMENT_SET_NO":999,"REV_AT_EPOCH":65537,"BSTAR":2.9287e-5,"MEAN_MOTION_DOT":-9.9e-7,"MEAN_MOTION_DDOT":0},{"OBJECT_NAME":"GLOBALSTAR M080","OBJECT_ID":"2011-080B","EPOCH":"2026-03-03T05:38:32.119872","MEAN_MOTION":12.62266793,"ECCENTRICITY":9.74e-5,"INCLINATION":52.0086,"RA_OF_ASC_NODE":341.522,"ARG_OF_PERICENTER":56.6676,"MEAN_ANOMALY":108.2395,"EPHEMERIS_TYPE":0,"CLASSIFICATION_TYPE":"U","NORAD_CAT_ID":38041,"ELEMENT_SET_NO":999,"REV_AT_EPOCH":65550,"BSTAR":0.00011264,"MEAN_MOTION_DOT":-8.4e-7,"MEAN_MOTION_DDOT":0},{"OBJECT_NAME":"GLOBALSTAR M082","OBJECT_ID":"2011-080C","EPOCH":"2026-03-03T02:12:31.468032","MEAN_MOTION":12.62267912,"ECCENTRICITY":0.0001086,"INCLINATION":52.0079,"RA_OF_ASC_NODE":297.4489,"ARG_OF_PERICENTER":69.568,"MEAN_ANOMALY":94.8374,"EPHEMERIS_TYPE":0,"CLASSIFICATION_TYPE":"U","NORAD_CAT_ID":38042,"ELEMENT_SET_NO":999,"REV_AT_EPOCH":65619,"BSTAR":0.00022088,"MEAN_MOTION_DOT":-6.4e-7,"MEAN_MOTION_DDOT":0},{"OBJECT_NAME":"GLOBALSTAR M092","OBJECT_ID":"2011-080D","EPOCH":"2026-03-03T09:11:45.278016","MEAN_MOTION":12.62264185,"ECCENTRICITY":3.58e-5,"INCLINATION":52.0104,"RA_OF_ASC_NODE":26.9482,"ARG_OF_PERICENTER":82.1847,"MEAN_ANOMALY":85.8735,"EPHEMERIS_TYPE":0,"CLASSIFICATION_TYPE":"U","NORAD_CAT_ID":38043,"ELEMENT_SET_NO":999,"REV_AT_EPOCH":65468,"BSTAR":7.9403e-6,"MEAN_MOTION_DOT":-1.02e-6,"MEAN_MOTION_DDOT":0},{"OBJECT_NAME":"GLOBALSTAR M090","OBJECT_ID":"2011-080E","EPOCH":"2026-03-03T00:58:12.741600","MEAN_MOTION":12.62271591,"ECCENTRICITY":9.17e-5,"INCLINATION":52.0121,"RA_OF_ASC_NODE":291.5279,"ARG_OF_PERICENTER":85.7752,"MEAN_ANOMALY":82.8926,"EPHEMERIS_TYPE":0,"CLASSIFICATION_TYPE":"U","NORAD_CAT_ID":38044,"ELEMENT_SET_NO":999,"REV_AT_EPOCH":65630,"BSTAR":0.00020363,"MEAN_MOTION_DOT":-6.7e-7,"MEAN_MOTION_DDOT":0},{"OBJECT_NAME":"GLOBALSTAR M086","OBJECT_ID":"2011-080F","EPOCH":"2026-03-03T01:30:17.805312","MEAN_MOTION":12.62283316,"ECCENTRICITY":0.0001308,"INCLINATION":51.9898,"RA_OF_ASC_NODE":291.5629,"ARG_OF_PERICENTER":140.0361,"MEAN_ANOMALY":24.332,"EPHEMERIS_TYPE":0,"CLASSIFICATION_TYPE":"U","NORAD_CAT_ID":38045,"ELEMENT_SET_NO":999,"REV_AT_EPOCH":65625,"BSTAR":0.00018587,"MEAN_MOTION_DOT":-7.0e-7,"MEAN_MOTION_DDOT":0},{"OBJECT_NAME":"GLOBALSTAR M097","OBJECT_ID":"2013-005A","EPOCH":"2026-03-02T15:49:41.890368","MEAN_MOTION":12.62284394,"ECCENTRICITY":0.000106,"INCLINATION":52.003,"RA_OF_ASC_NODE":207.6114,"ARG_OF_PERICENTER":108.1649,"MEAN_ANOMALY":251.9333,"EPHEMERIS_TYPE":0,"CLASSIFICATION_TYPE":"U","NORAD_CAT_ID":39072,"ELEMENT_SET_NO":999,"REV_AT_EPOCH":60345,"BSTAR":-0.0001054,"MEAN_MOTION_DOT":-1.23e-6,"MEAN_MOTION_DDOT":0},{"OBJECT_NAME":"GLOBALSTAR M093","OBJECT_ID":"2013-005B","EPOCH":"2026-03-03T12:06:20.927232","MEAN_MOTION":12.62273216,"ECCENTRICITY":0.0001201,"INCLINATION":52.0094,"RA_OF_ASC_NODE":198.3482,"ARG_OF_PERICENTER":110.1132,"MEAN_ANOMALY":249.9864,"EPHEMERIS_TYPE":0,"CLASSIFICATION_TYPE":"U","NORAD_CAT_ID":39073,"ELEMENT_SET_NO":999,"REV_AT_EPOCH":60351,"BSTAR":-6.1022e-5,"MEAN_MOTION_DOT":-1.15e-6,"MEAN_MOTION_DDOT":0},{"OBJECT_NAME":"GLOBALSTAR M094","OBJECT_ID":"2013-005C","EPOCH":"2026-03-03T10:12:33.316704","MEAN_MOTION":12.6226702,"ECCENTRICITY":7.33e-5,"INCLINATION":51.995,"RA_OF_ASC_NODE":112.8136,"ARG_OF_PERICENTER":116.8779,"MEAN_ANOMALY":243.2162,"EPHEMERIS_TYPE":0,"CLASSIFICATION_TYPE":"U","NORAD_CAT_ID":39074,"ELEMENT_SET_NO":999,"REV_AT_EPOCH":60511,"BSTAR":0.0001535,"MEAN_MOTION_DOT":-7.6e-7,"MEAN_MOTION_DDOT":0},{"OBJECT_NAME":"GLOBALSTAR M096","OBJECT_ID":"2013-005D","EPOCH":"2026-03-03T10:31:28.784640","MEAN_MOTION":12.62263275,"ECCENTRICITY":8.89e-5,"INCLINATION":52.0066,"RA_OF_ASC_NODE":161.4899,"ARG_OF_PERICENTER":109.1511,"MEAN_ANOMALY":250.9452,"EPHEMERIS_TYPE":0,"CLASSIFICATION_TYPE":"U","NORAD_CAT_ID":39075,"ELEMENT_SET_NO":999,"REV_AT_EPOCH":60403,"BSTAR":4.1286e-6,"MEAN_MOTION_DOT":-1.03e-6,"MEAN_MOTION_DDOT":0}]
